NORAD_CAT_ID,OBJECT_NAME,OBJECT_TYPE,EPOCH,MEAN_MOTION,ECCENTRICITY,INCLINATION,RA_OF_ASC_NODE,ARG_OF_PERICENTER,MEAN_ANOMALY,BSTAR,MEAN_MOTION_DOT,MEAN_MOTION_DDOT,TLE_LINE0,TLE_LINE1,TLE_LINE2,SEMIMAJOR_AXIS,PERIOD,APOGEE,PERIGEE,DECAYED
55403.0,STARLINK-5597,PAYLOAD,2024-03-25 22:40:47,14.98323075,0.0002491,70.0005,64.0488,256.5095,103.5786,-5.3916e-05,-7.36e-06,0.0,0 STARLINK-5597,1 55403U 23014N   24085.94499315 -.00000736  00000-0 -53916-4 0  9996,2 55403  70.0005  64.0488 0002491 256.5095 103.5786 14.98323075 65147,6950.214,96.107,573.811,570.348,0.0
55403.0,STARLINK-5597,PAYLOAD,2024-03-26 05:05:19,14.98324028,0.0002786,69.9998,63.3771,268.3947,91.6893,-0.00011606,-1.477e-05,0.0,0 STARLINK-5597,1 55403U 23014N   24086.21203607 -.00001477  00000-0 -11606-3 0  9996,2 55403  69.9998  63.3771 0002786 268.3947  91.6893 14.98324028 64241,6950.211,96.107,574.013,570.14,0.0
55403.0,STARLINK-5597,PAYLOAD,2024-03-26 08:17:36,14.98323831,0.0002847,69.9999,63.0407,268.585,91.4983,-0.00010828,-1.384e-05,0.0,0 STARLINK-5597,1 55403U 23014N   24086.34555663 -.00001384  00000-0 -10828-3 0  9994,2 55403  69.9999  63.0407 0002847 268.5850  91.4983 14.98323831 65204,6950.212,96.107,574.056,570.098,0.0
55403.0,STARLINK-5597,PAYLOAD,2024-03-26 16:18:15,14.98333602,0.0003016,69.9999,62.1994,265.8008,94.2807,-8.8767e-05,-1.152e-05,0.0,0 STARLINK-5597,1 55403U 23014N   24086.67934925 -.00001152  00000-0 -88767-4 0  9993,2 55403  69.9999  62.1994 0003016 265.8008  94.2807 14.98333602 64313,6950.182,96.107,574.143,569.951,0.0
55403.0,STARLINK-5597,PAYLOAD,2024-03-26 22:42:48,14.98328781,0.0002943,69.9996,61.5259,262.1229,97.9596,0.00010553,1.166e-05,0.0,0 STARLINK-5597,1 55403U 23014N   24086.94638913  .00001166  00000-0  10553-3 0  9991,2 55403  69.9996  61.5259 0002943 262.1229  97.9596 14.98328781 65295,6950.197,96.107,574.107,570.016,0.0
55403.0,STARLINK-5597,PAYLOAD,2024-03-27 08:19:35,14.98337157,0.0002862,69.9999,60.5159,261.6049,98.4786,0.000178,2.032e-05,0.0,0 STARLINK-5597,1 55403U 23014N   24087.34694187  .00002032  00000-0  17800-3 0  9996,2 55403  69.9999  60.5159 0002862 261.6049  98.4786 14.98337157 64417,6950.171,96.107,574.025,570.047,0.0
55403.0,STARLINK-5597,PAYLOAD,2024-03-27 22:44:48,14.98329522,0.0002701,70.001,59.0019,263.0989,96.9863,0.00016563,1.884e-05,0.0,0 STARLINK-5597,1 55403U 23014N   24087.94778624  .00001884  00000-0  16563-3 0  9990,2 55403  70.0010  59.0019 0002701 263.0989  96.9863 14.98329522 65443,6950.194,96.107,573.937,570.182,0.0
55403.0,STARLINK-5597,PAYLOAD,2024-03-28 05:09:20,14.98330358,0.0002657,70.0012,58.3291,267.4803,92.6051,0.00017468,1.992e-05,0.0,0 STARLINK-5597,1 55403U 23014N   24088.21482579  .00001992  00000-0  17468-3 0  9997,2 55403  70.0012  58.3291 0002657 267.4803  92.6051 14.98330358 64543,6950.192,96.107,573.903,570.21,0.0
55403.0,STARLINK-5597,PAYLOAD,2024-03-28 08:21:36,14.9834843,0.0002592,70.001,57.992,271.5853,88.5009,-0.00013979,-1.761e-05,0.0,0 STARLINK-5597,1 55403U 23014N   24088.34834162 -.00001761  00000-0 -13979-3 0  9999,2 55403  70.0010  57.9920 0002592 271.5853  88.5009 14.98348430 64563,6950.136,96.106,573.802,570.199,0.0
55403.0,STARLINK-5597,PAYLOAD,2024-03-28 14:46:08,14.98379477,0.000299,70.0022,57.3164,278.9829,81.0991,-0.00080681,-9.719e-05,0.0,0 STARLINK-5597,1 55403U 23014N   24088.61537528 -.00009719  00000-0 -80681-3 0  9990,2 55403  70.0022  57.3164 0002990 278.9829  81.0991 14.98379477 64604,6950.04,96.104,573.983,569.827,0.0
55403.0,STARLINK-5597,PAYLOAD,2024-03-28 22:46:49,14.98335399,0.0002896,70.0029,56.4748,267.4947,92.5881,-4.3896e-05,-6.17e-06,0.0,0 STARLINK-5597,1 55403U 23014N   24088.94918623 -.00000617  00000-0 -43896-4 0  9991,2 55403  70.0029  56.4748 0002896 267.4947  92.5881 14.98335399 65597,6950.176,96.107,574.054,570.028,0.0
55403.0,STARLINK-5597,PAYLOAD,2024-03-29 03:35:13,14.98333262,0.0002962,70.0007,55.9712,270.2176,89.8644,-3.3486e-05,-4.93e-06,0.0,0 STARLINK-5597,1 55403U 23014N   24089.14946709 -.00000493  00000-0 -33486-4 0  9996,2 55403  70.0007  55.9712 0002962 270.2176  89.8644 14.98333262 64680,6950.183,96.107,574.106,569.989,0.0
55403.0,STARLINK-5597,PAYLOAD,2024-03-29 06:47:29,14.98334433,0.0002862,70.0009,55.6347,268.033,92.0501,-4.5904e-06,-1.48e-06,0.0,0 STARLINK-5597,1 55403U 23014N   24089.28298508 -.00000148  00000-0 -45904-5 0  9994,2 55403  70.0009  55.6347 0002862 268.0330  92.0501 14.98334433 65645,6950.179,96.107,574.033,570.055,0.0
55403.0,STARLINK-5597,PAYLOAD,2024-03-29 22:48:50,14.98314324,0.000277,70.0017,53.9508,258.9507,101.1341,0.0003251,3.787e-05,0.0,0 STARLINK-5597,1 55403U 23014N   24089.95058295  .00003787  00000-0  32510-3 0  9992,2 55403  70.0017  53.9508 0002770 258.9507 101.1341 14.98314324 65748,6950.241,96.108,574.032,570.181,0.0
55403.0,STARLINK-5597,PAYLOAD,2024-03-30 03:37:14,14.98333602,0.0002832,70.0003,53.4456,264.6439,95.4397,-2.7688e-05,-4.23e-06,0.0,0 STARLINK-5597,1 55403U 23014N   24090.15086231 -.00000423  00000-0 -27688-4 0  9994,2 55403  70.0003  53.4456 0002832 264.6439  95.4397 14.98333602 64832,6950.182,96.107,574.015,570.078,0.0
55403.0,STARLINK-5597,PAYLOAD,2024-03-30 14:50:10,14.98335697,0.000317,70.0009,52.2677,270.896,89.1836,-8.9214e-05,-1.157e-05,0.0,0 STARLINK-5597,1 55403U 23014N   24090.61818089 -.00001157  00000-0 -89214-4 0  9997,2 55403  70.0009  52.2677 0003170 270.8960  89.1836 14.98335697 65840,6950.175,96.107,574.243,569.837,0.0
55403.0,STARLINK-5597,PAYLOAD,2024-03-30 22:50:51,14.98325195,0.0002926,70.0008,51.4281,270.0292,90.0531,-4.557e-05,-6.37e-06,0.0,0 STARLINK-5597,1 55403U 23014N   24090.95198813 -.00000637  00000-0 -45570-4 0  9999,2 55403  70.0008  51.4281 0002926 270.0292  90.0531 14.98325195 65899,6950.208,96.107,574.106,570.039,0.0
55403.0,STARLINK-5597,PAYLOAD,2024-03-31 03:39:15,14.98326265,0.0002825,70.0011,50.9216,268.6992,91.3843,-3.497e-05,-5.1e-06,0.0,0 STARLINK-5597,1 55403U 23014N   24091.15226713 -.00000510  00000-0 -34970-4 0  9995,2 55403  70.0011  50.9216 0002825 268.6992  91.3843 14.98326265 64981,6950.204,96.107,574.033,570.106,0.0
55403.0,STARLINK-5597,PAYLOAD,2024-03-31 06:51:31,14.98325874,0.0002669,70.0015,50.585,265.1567,94.9288,4.5799e-06,-3.8e-07,0.0,0 STARLINK-5597,1 55403U 23014N   24091.28578694 -.00000038  00000-0  45799-5 0  9993,2 55403  70.0015  50.5850 0002669 265.1567  94.9288 14.98325874 65945,6950.206,96.107,573.926,570.216,0.0
55403.0,STARLINK-5597,PAYLOAD,2024-03-31 21:16:44,14.98333839,0.0003014,70.0006,49.0705,269.7612,90.3202,2.5404e-05,2.1e-06,0.0,0 STARLINK-5597,1 55403U 23014N   24091.88662039  .00000210  00000-0  25404-4 0  9997,2 55403  70.0006  49.0705 0003014 269.7612  90.3202 14.98333839 66030,6950.181,96.107,574.141,569.951,0.0
55403.0,STARLINK-5597,PAYLOAD,2024-04-01 05:17:23,14.98337438,0.0002999,70.0007,48.2287,269.0576,91.0239,6.4959e-05,6.82e-06,0.0,0 STARLINK-5597,1 55403U 23014N   24092.22041600  .00000682  00000-0  64959-4 0  9992,2 55403  70.0007  48.2287 0002999 269.0576  91.0239 14.98337438 65148,6950.17,96.107,574.119,569.951,0.0
55403.0,STARLINK-5597,PAYLOAD,2024-04-01 06:53:31,14.98338014,0.0002996,70.0007,48.0604,269.0582,91.0233,7.0553e-05,7.49e-06,0.0,0 STARLINK-5597,1 55403U 23014N   24092.28717521  .00000749  00000-0  70553-4 0  9991,2 55403  70.0007  48.0604 0002996 269.0582  91.0233 14.98338014 66093,6950.168,96.106,574.115,569.951,0.0
55403.0,STARLINK-5597,PAYLOAD,2024-04-02 03:43:17,14.98328733,0.0002958,70.001,45.8725,270.0302,90.0518,1.9409e-05,1.39e-06,0.0,0 STARLINK-5597,1 55403U 23014N   24093.15506207  .00000139  00000-0  19409-4 0  9991,2 55403  70.0010  45.8725 0002958 270.0302  90.0518 14.98328733 65288,6950.197,96.107,574.118,570.006,0.0
55403.0,STARLINK-5597,PAYLOAD,2024-04-02 06:55:33,14.98329091,0.0002956,70.0011,45.5359,270.0923,89.9897,2.197e-05,1.69e-06,0.0,0 STARLINK-5597,1 55403U 23014N   24093.28858185  .00000169  00000-0  21970-4 0  9999,2 55403  70.0011  45.5359 0002956 270.0923  89.9897 14.98329091 66248,6950.196,96.107,574.115,570.006,0.0
55403.0,STARLINK-5597,PAYLOAD,2024-04-02 21:20:46,14.98321334,0.00028,70.0017,44.0223,268.8591,91.2247,9.7043e-05,1.065e-05,0.0,0 STARLINK-5597,1 55403U 23014N   24093.88942503  .00001065  00000-0  97043-4 0  9993,2 55403  70.0017  44.0223 0002800 268.8591  91.2247 14.98321334 66339,6950.22,96.108,574.031,570.139,0.0
55403.0,STARLINK-5597,PAYLOAD,2024-04-03 02:09:10,14.983115,0.0002907,70.0017,43.5173,267.3349,92.7477,0.00025817,2.987e-05,0.0,0 STARLINK-5597,1 55403U 23014N   24094.08970836  .00002987  00000-0  25817-3 0  9999,2 55403  70.0017  43.5173 0002907 267.3349  92.7477 14.98311500 65424,6950.25,96.108,574.136,570.095,0.0
55403.0,STARLINK-5597,PAYLOAD,2024-04-03 06:57:34,14.98336837,0.0002655,70.0017,43.0124,267.4633,92.6222,-0.0001099,-1.404e-05,0.0,0 STARLINK-5597,1 55403U 23014N   24094.28998024 -.00001404  00000-0 -10990-3 0  9991,2 55403  70.0017  43.0124 0002655 267.4633  92.6222 14.98336837 65452,6950.172,96.107,573.882,570.191,0.0
55403.0,STARLINK-5597,PAYLOAD,2024-04-03 13:22:06,14.98352351,0.000288,70.0017,42.3386,271.8862,88.1967,-0.00047782,-5.793e-05,0.0,0 STARLINK-5597,1 55403U 23014N   24094.55701816 -.00005793  00000-0 -47782-3 0  9996,2 55403  70.0017  42.3386 0002880 271.8862  88.1967 14.98352351 66431,6950.124,96.106,573.99,569.987,0.0
55403.0,STARLINK-5597,PAYLOAD,2024-04-04 03:47:19,14.98326092,0.0002818,70.0017,40.8227,268.5021,91.5815,5.1957e-05,5.27e-06,0.0,0 STARLINK-5597,1 55403U 23014N   24095.15786304  .00000527  00000-0  51957-4 0  9996,2 55403  70.0017  40.8227 0002818 268.5021  91.5815 14.98326092 65587,6950.205,96.107,574.029,570.111,0.0
55403.0,STARLINK-5597,PAYLOAD,2024-04-04 13:24:07,14.98353546,0.0002929,70.0017,39.813,273.1099,86.9725,-0.00040826,-4.964e-05,0.0,0 STARLINK-5597,1 55403U 23014N   24095.55841610 -.00004964  00000-0 -40826-3 0  9995,2 55403  70.0017  39.8130 0002929 273.1099  86.9725 14.98353546 66581,6950.12,96.105,574.021,569.949,0.0
